[
  {
    "OBJECT_NAME": "CBERS 4",
    "OBJECT_ID": "2014-079A",
    "EPOCH": "2025-06-28T18:57:47.936160",
    "MEAN_MOTION": 14.35514383,
    "ECCENTRICITY": 6.19e-05,
    "INCLINATION": 98.3528,
    "RA_OF_ASC_NODE": 243.2762,
    "ARG_OF_PERICENTER": 65.9112,
    "MEAN_ANOMALY": 294.2139,
    "EPHEMERIS_TYPE": 0,
    "CLASSIFICATION_TYPE": "U",
    "NORAD_CAT_ID": 40336,
    "ELEMENT_SET_NO": 999,
    "REV_AT_EPOCH": 55327,
    "BSTAR": 3.9324e-05,
    "MEAN_MOTION_DOT": 7.1e-07,
    "MEAN_MOTION_DDOT": 0
  },
  {
    "OBJECT_NAME": "YAOGAN-26",
    "OBJECT_ID": "2014-088A",
    "EPOCH": "2025-06-28T19:08:17.512224",
    "MEAN_MOTION": 15.3310211,
    "ECCENTRICITY": 0.0003915,
    "INCLINATION": 97.0632,
    "RA_OF_ASC_NODE": 187.238,
    "ARG_OF_PERICENTER": 234.0942,
    "MEAN_ANOMALY": 125.9938,
    "EPHEMERIS_TYPE": 0,
    "CLASSIFICATION_TYPE": "U",
    "NORAD_CAT_ID": 40362,
    "ELEMENT_SET_NO": 999,
    "REV_AT_EPOCH": 58477,
    "BSTAR": 0.00025582,
    "MEAN_MOTION_DOT": 8.109e-05,
    "MEAN_MOTION_DDOT": 0
  },
  {
    "OBJECT_NAME": "SMAP",
    "OBJECT_ID": "2015-003A",
    "EPOCH": "2025-06-28T13:47:51.855072",
    "MEAN_MOTION": 14.63328798,
    "ECCENTRICITY": 0.0001342,
    "INCLINATION": 98.1272,
    "RA_OF_ASC_NODE": 186.6523,
    "ARG_OF_PERICENTER": 91.3646,
    "MEAN_ANOMALY": 268.7709,
    "EPHEMERIS_TYPE": 0,
    "CLASSIFICATION_TYPE": "U",
    "NORAD_CAT_ID": 40376,
    "ELEMENT_SET_NO": 999,
    "REV_AT_EPOCH": 55590,
    "BSTAR": 6.3243e-05,
    "MEAN_MOTION_DOT": 2.8e-06,
    "MEAN_MOTION_DDOT": 0
  },
  {
    "OBJECT_NAME": "KOMPSAT-3A",
    "OBJECT_ID": "2015-014A",
    "EPOCH": "2025-06-28T19:57:20.939040",
    "MEAN_MOTION": 15.37312234,
    "ECCENTRICITY": 0.0005056,
    "INCLINATION": 97.6571,
    "RA_OF_ASC_NODE": 146.2011,
    "ARG_OF_PERICENTER": 49.6858,
    "MEAN_ANOMALY": 310.4827,
    "EPHEMERIS_TYPE": 0,
    "CLASSIFICATION_TYPE": "U",
    "NORAD_CAT_ID": 40536,
    "ELEMENT_SET_NO": 999,
    "REV_AT_EPOCH": 56728,
    "BSTAR": 0.00025472,
    "MEAN_MOTION_DOT": 9.23e-05,
    "MEAN_MOTION_DDOT": 0
  },
  {
    "OBJECT_NAME": "SENTINEL-2A",
    "OBJECT_ID": "2015-028A",
    "EPOCH": "2025-06-28T18:54:54.009504",
    "MEAN_MOTION": 14.30812606,
    "ECCENTRICITY": 0.0001227,
    "INCLINATION": 98.5693,
    "RA_OF_ASC_NODE": 254.7074,
    "ARG_OF_PERICENTER": 92.5281,
    "MEAN_ANOMALY": 267.6042,
    "EPHEMERIS_TYPE": 0,
    "CLASSIFICATION_TYPE": "U",
    "NORAD_CAT_ID": 40697,
    "ELEMENT_SET_NO": 999,
    "REV_AT_EPOCH": 52319,
    "BSTAR": 4.759e-05,
    "MEAN_MOTION_DOT": 8.1e-07,
    "MEAN_MOTION_DDOT": 0
  },
  {
    "OBJECT_NAME": "GAOFEN-8",
    "OBJECT_ID": "2015-030A",
    "EPOCH": "2025-06-28T20:05:04.465536",
    "MEAN_MOTION": 15.3262798,
    "ECCENTRICITY": 0.0012329,
    "INCLINATION": 97.6902,
    "RA_OF_ASC_NODE": 350.7459,
    "ARG_OF_PERICENTER": 20.7962,
    "MEAN_ANOMALY": 339.3778,
    "EPHEMERIS_TYPE": 0,
    "CLASSIFICATION_TYPE": "U",
    "NORAD_CAT_ID": 40701,
    "ELEMENT_SET_NO": 999,
    "REV_AT_EPOCH": 55710,
    "BSTAR": 0.00030423,
    "MEAN_MOTION_DOT": 9.526e-05,
    "MEAN_MOTION_DDOT": 0
  },
  {
    "OBJECT_NAME": "CARBONITE 1 (CBNT-1)",
    "OBJECT_ID": "2015-032D",
    "EPOCH": "2025-06-28T18:27:39.771648",
    "MEAN_MOTION": 14.81835636,
    "ECCENTRICITY": 0.0015315,
    "INCLINATION": 97.6438,
    "RA_OF_ASC_NODE": 8.2659,
    "ARG_OF_PERICENTER": 19.4446,
    "MEAN_ANOMALY": 340.7348,
    "EPHEMERIS_TYPE": 0,
    "CLASSIFICATION_TYPE": "U",
    "NORAD_CAT_ID": 40718,
    "ELEMENT_SET_NO": 999,
    "REV_AT_EPOCH": 53697,
    "BSTAR": 0.00013401,
    "MEAN_MOTION_DOT": 1.011e-05,
    "MEAN_MOTION_DDOT": 0
  },
  {
    "OBJECT_NAME": "YAOGAN-27",
    "OBJECT_ID": "2015-040A",
    "EPOCH": "2025-06-28T20:00:05.190624",
    "MEAN_MOTION": 13.16050239,
    "ECCENTRICITY": 0.0007675,
    "INCLINATION": 100.0867,
    "RA_OF_ASC_NODE": 177.063,
    "ARG_OF_PERICENTER": 314.4631,
    "MEAN_ANOMALY": 45.5855,
    "EPHEMERIS_TYPE": 0,
    "CLASSIFICATION_TYPE": "U",
    "NORAD_CAT_ID": 40878,
    "ELEMENT_SET_NO": 999,
    "REV_AT_EPOCH": 47268,
    "BSTAR": -3.2021e-05,
    "MEAN_MOTION_DOT": -5.4e-07,
    "MEAN_MOTION_DDOT": 0
  },
  {
    "OBJECT_NAME": "GAOFEN-9 01",
    "OBJECT_ID": "2015-047A",
    "EPOCH": "2025-06-28T20:11:09.762144",
    "MEAN_MOTION": 14.81898116,
    "ECCENTRICITY": 0.002699,
    "INCLINATION": 97.6761,
    "RA_OF_ASC_NODE": 225.7987,
    "ARG_OF_PERICENTER": 215.7427,
    "MEAN_ANOMALY": 144.1981,
    "EPHEMERIS_TYPE": 0,
    "CLASSIFICATION_TYPE": "U",
    "NORAD_CAT_ID": 40894,
    "ELEMENT_SET_NO": 999,
    "REV_AT_EPOCH": 52784,
    "BSTAR": 8.4393e-05,
    "MEAN_MOTION_DOT": 6.2e-06,
    "MEAN_MOTION_DDOT": 0
  },
  {
    "OBJECT_NAME": "LAPAN-A2 (IO-86)",
    "OBJECT_ID": "2015-052B",
    "EPOCH": "2025-05-31T04:27:33.271200",
    "MEAN_MOTION": 14.7880593,
    "ECCENTRICITY": 0.0012733,
    "INCLINATION": 6.0006,
    "RA_OF_ASC_NODE": 24.0987,
    "ARG_OF_PERICENTER": 338.8432,
    "MEAN_ANOMALY": 21.1169,
    "EPHEMERIS_TYPE": 0,
    "CLASSIFICATION_TYPE": "U",
    "NORAD_CAT_ID": 40931,
    "ELEMENT_SET_NO": 999,
    "REV_AT_EPOCH": 52304,
    "BSTAR": 7.8118e-05,
    "MEAN_MOTION_DOT": 1.241e-05,
    "MEAN_MOTION_DDOT": 0
  },
  {
    "OBJECT_NAME": "YAOGAN-28",
    "OBJECT_ID": "2015-064A",
    "EPOCH": "2025-06-28T21:30:15.025536",
    "MEAN_MOTION": 15.23671278,
    "ECCENTRICITY": 0.0013471,
    "INCLINATION": 97.2606,
    "RA_OF_ASC_NODE": 322.8043,
    "ARG_OF_PERICENTER": 343.2017,
    "MEAN_ANOMALY": 16.8773,
    "EPHEMERIS_TYPE": 0,
    "CLASSIFICATION_TYPE": "U",
    "NORAD_CAT_ID": 41026,
    "ELEMENT_SET_NO": 999,
    "REV_AT_EPOCH": 53684,
    "BSTAR": 0.00019377,
    "MEAN_MOTION_DOT": 4.589e-05,
    "MEAN_MOTION_DDOT": 0
  },
  {
    "OBJECT_NAME": "YAOGAN-29",
    "OBJECT_ID": "2015-069A",
    "EPOCH": "2025-06-28T19:10:10.715232",
    "MEAN_MOTION": 14.82652322,
    "ECCENTRICITY": 0.0002976,
    "INCLINATION": 98.0337,
    "RA_OF_ASC_NODE": 202.2724,
    "ARG_OF_PERICENTER": 92.4963,
    "MEAN_ANOMALY": 267.659,
    "EPHEMERIS_TYPE": 0,
    "CLASSIFICATION_TYPE": "U",
    "NORAD_CAT_ID": 41038,
    "ELEMENT_SET_NO": 999,
    "REV_AT_EPOCH": 51825,
    "BSTAR": 3.6257e-05,
    "MEAN_MOTION_DOT": 2.38e-06,
    "MEAN_MOTION_DDOT": 0
  },
  {
    "OBJECT_NAME": "KENT RIDGE 1",
    "OBJECT_ID": "2015-077B",
    "EPOCH": "2025-06-28T20:23:40.672320",
    "MEAN_MOTION": 15.20077452,
    "ECCENTRICITY": 0.0009026,
    "INCLINATION": 14.9815,
    "RA_OF_ASC_NODE": 7.752,
    "ARG_OF_PERICENTER": 304.7473,
    "MEAN_ANOMALY": 55.1999,
    "EPHEMERIS_TYPE": 0,
    "CLASSIFICATION_TYPE": "U",
    "NORAD_CAT_ID": 41167,
    "ELEMENT_SET_NO": 999,
    "REV_AT_EPOCH": 52733,
    "BSTAR": 9.6803e-05,
    "MEAN_MOTION_DOT": 2.891e-05,
    "MEAN_MOTION_DDOT": 0
  },
  {
    "OBJECT_NAME": "GAOFEN-4",
    "OBJECT_ID": "2015-083A",
    "EPOCH": "2025-06-28T14:21:46.568160",
    "MEAN_MOTION": 1.0027416,
    "ECCENTRICITY": 4.41e-05,
    "INCLINATION": 0.0206,
    "RA_OF_ASC_NODE": 83.9363,
    "ARG_OF_PERICENTER": 300.0339,
    "MEAN_ANOMALY": 214.096,
    "EPHEMERIS_TYPE": 0,
    "CLASSIFICATION_TYPE": "U",
    "NORAD_CAT_ID": 41194,
    "ELEMENT_SET_NO": 999,
    "REV_AT_EPOCH": 3498,
    "BSTAR": 0,
    "MEAN_MOTION_DOT": -3.41e-06,
    "MEAN_MOTION_DDOT": 0
  },
  {
    "OBJECT_NAME": "JASON-3",
    "OBJECT_ID": "2016-002A",
    "EPOCH": "2025-06-28T14:30:36.967392",
    "MEAN_MOTION": 12.87626812,
    "ECCENTRICITY": 0.0008198,
    "INCLINATION": 66.04,
    "RA_OF_ASC_NODE": 149.2094,
    "ARG_OF_PERICENTER": 268.4115,
    "MEAN_ANOMALY": 91.5965,
    "EPHEMERIS_TYPE": 0,
    "CLASSIFICATION_TYPE": "U",
    "NORAD_CAT_ID": 41240,
    "ELEMENT_SET_NO": 999,
    "REV_AT_EPOCH": 44172,
    "BSTAR": -2.3216e-05,
    "MEAN_MOTION_DOT": -6.8e-07,
    "MEAN_MOTION_DDOT": 0
  },
  {
    "OBJECT_NAME": "SENTINEL-3A",
    "OBJECT_ID": "2016-011A",
    "EPOCH": "2025-06-28T19:58:10.654464",
    "MEAN_MOTION": 14.26737144,
    "ECCENTRICITY": 0.000147,
    "INCLINATION": 98.6251,
    "RA_OF_ASC_NODE": 247.2556,
    "ARG_OF_PERICENTER": 97.6786,
    "MEAN_ANOMALY": 262.4561,
    "EPHEMERIS_TYPE": 0,
    "CLASSIFICATION_TYPE": "U",
    "NORAD_CAT_ID": 41335,
    "ELEMENT_SET_NO": 999,
    "REV_AT_EPOCH": 48767,
    "BSTAR": 5.0268e-05,
    "MEAN_MOTION_DOT": 7.8e-07,
    "MEAN_MOTION_DDOT": 0
  },
  {
    "OBJECT_NAME": "ZIYUAN 3-2 (ZY 3-2)",
    "OBJECT_ID": "2016-033A",
    "EPOCH": "2025-06-28T20:24:55.353024",
    "MEAN_MOTION": 15.21194869,
    "ECCENTRICITY": 0.0012011,
    "INCLINATION": 97.419,
    "RA_OF_ASC_NODE": 256.6154,
    "ARG_OF_PERICENTER": 103.8758,
    "MEAN_ANOMALY": 256.3814,
    "EPHEMERIS_TYPE": 0,
    "CLASSIFICATION_TYPE": "U",
    "NORAD_CAT_ID": 41556,
    "ELEMENT_SET_NO": 999,
    "REV_AT_EPOCH": 50426,
    "BSTAR": 0.00018293,
    "MEAN_MOTION_DOT": 4.017e-05,
    "MEAN_MOTION_DDOT": 0
  },
  {
    "OBJECT_NAME": "CARTOSAT-2C",
    "OBJECT_ID": "2016-040A",
    "EPOCH": "2025-06-28T21:32:58.661088",
    "MEAN_MOTION": 15.19275911,
    "ECCENTRICITY": 0.0010483,
    "INCLINATION": 97.4212,
    "RA_OF_ASC_NODE": 239.7309,
    "ARG_OF_PERICENTER": 280.809,
    "MEAN_ANOMALY": 79.1964,
    "EPHEMERIS_TYPE": 0,
    "CLASSIFICATION_TYPE": "U",
    "NORAD_CAT_ID": 41599,
    "ELEMENT_SET_NO": 999,
    "REV_AT_EPOCH": 50007,
    "BSTAR": 0.00015281,
    "MEAN_MOTION_DOT": 3.158e-05,
    "MEAN_MOTION_DDOT": 0
  },
  {
    "OBJECT_NAME": "SKYSAT-C1",
    "OBJECT_ID": "2016-040C",
    "EPOCH": "2025-06-28T16:27:32.959296",
    "MEAN_MOTION": 15.30114774,
    "ECCENTRICITY": 0.0002655,
    "INCLINATION": 97.0041,
    "RA_OF_ASC_NODE": 226.2887,
    "ARG_OF_PERICENTER": 58.4748,
    "MEAN_ANOMALY": 301.6753,
    "EPHEMERIS_TYPE": 0,
    "CLASSIFICATION_TYPE": "U",
    "NORAD_CAT_ID": 41601,
    "ELEMENT_SET_NO": 999,
    "REV_AT_EPOCH": 50372,
    "BSTAR": 0.00018132,
    "MEAN_MOTION_DOT": 5.214e-05,
    "MEAN_MOTION_DDOT": 0
  }
]